NORAD_CAT_ID,OBJECT_NAME,OBJECT_TYPE,EPOCH,MEAN_MOTION,ECCENTRICITY,INCLINATION,RA_OF_ASC_NODE,ARG_OF_PERICENTER,MEAN_ANOMALY,BSTAR,MEAN_MOTION_DOT,MEAN_MOTION_DDOT,TLE_LINE0,TLE_LINE1,TLE_LINE2,SEMIMAJOR_AXIS,PERIOD,APOGEE,PERIGEE,DECAYED
49425.0,STARLINK-3139,PAYLOAD,2023-11-22 09:47:28,15.08846448,0.0001426,53.2176,32.3234,88.707,271.4086,0.00012055,1.631e-05,0.0,0 STARLINK-3139,1 49425U 21104T   23326.40796631  .00001631  00000-0  12055-3 0  9991,2 49425  53.2176  32.3234 0001426  88.7070 271.4086 15.08846448112088,6917.861,95.437,540.712,538.739,0.0
49425.0,STARLINK-3139,PAYLOAD,2023-11-23 09:38:16,15.08830202,0.0001644,53.2174,27.8618,108.9044,251.2127,-9.5004e-05,-1.799e-05,0.0,0 STARLINK-3139,1 49425U 21104T   23327.40158090 -.00001799  00000-0 -95004-4 0  9996,2 49425  53.2174  27.8618 0001644 108.9044 251.2127 15.08830202113319,6917.91,95.438,540.913,538.638,0.0
49425.0,STARLINK-3139,PAYLOAD,2023-11-24 09:29:03,15.08834964,0.000192,53.2181,23.4033,115.0276,245.0916,-1.5267e-05,-5.31e-06,0.0,0 STARLINK-3139,1 49425U 21104T   23328.39518475 -.00000531  00000-0 -15267-4 0  9998,2 49425  53.2181  23.4033 0001920 115.0276 245.0916 15.08834964112385,6917.896,95.438,541.089,538.433,0.0
49425.0,STARLINK-3139,PAYLOAD,2023-11-25 02:58:19,15.08820838,0.0001802,53.2182,20.1315,111.783,248.3354,0.00069021,0.00010708,0.0,0 STARLINK-3139,1 49425U 21104T   23329.12383359  .00010708  00000-0  69021-3 0  9992,2 49425  53.2182  20.1315 0001802 111.7830 248.3354 15.08820838113570,6917.939,95.439,541.051,538.557,0.0
49425.0,STARLINK-3139,PAYLOAD,2023-11-25 09:19:51,15.08834753,0.0001829,53.2183,18.9426,113.6009,246.5175,0.00064779,0.00010035,0.0,0 STARLINK-3139,1 49425U 21104T   23329.38879024  .00010035  00000-0  64779-3 0  9997,2 49425  53.2183  18.9426 0001829 113.6009 246.5175 15.08834753112534,6917.896,95.438,541.027,538.496,0.0
49425.0,STARLINK-3139,PAYLOAD,2023-11-25 23:38:18,15.08863459,0.0001737,53.218,16.2656,113.248,246.8695,0.00042546,6.494e-05,0.0,0 STARLINK-3139,1 49425U 21104T   23329.98493360  .00006494  00000-0  42546-3 0  9990,2 49425  53.2180  16.2656 0001737 113.2480 246.8695 15.08863459113709,6917.809,95.436,540.875,538.472,0.0
49425.0,STARLINK-3139,PAYLOAD,2023-11-26 10:45:59,15.08869921,0.0001538,53.218,14.1847,89.6841,270.4328,0.00050555,7.774e-05,0.0,0 STARLINK-3139,1 49425U 21104T   23330.44860839  .00007774  00000-0  50555-3 0  9993,2 49425  53.2180  14.1847 0001538  89.6841 270.4328 15.08869921112697,6917.789,95.436,540.718,538.59,0.0
49425.0,STARLINK-3139,PAYLOAD,2023-11-27 02:39:52,15.08828212,0.0001586,53.2178,11.2183,74.5265,285.5902,-0.00026233,-4.459e-05,0.0,0 STARLINK-3139,1 49425U 21104T   23331.11102567 -.00004459  00000-0 -26233-3 0  9990,2 49425  53.2178  11.2183 0001586  74.5265 285.5902 15.08828212113875,6917.916,95.438,540.879,538.684,0.0
49425.0,STARLINK-3139,PAYLOAD,2023-11-27 09:01:25,15.08809083,0.0001672,53.2171,10.021,110.2981,249.8191,-0.00061647,-0.00010077,0.0,0 STARLINK-3139,1 49425U 21104T   23331.37599405 -.00010077  00000-0 -61647-3 0  9990,2 49425  53.2171  10.0210 0001672 110.2981 249.8191 15.08809083113918,6917.975,95.44,540.997,538.683,0.0
49425.0,STARLINK-3139,PAYLOAD,2023-11-27 23:19:54,15.08827842,0.0001471,53.2171,7.3457,94.9558,265.1602,8.439e-05,1.055e-05,0.0,0 STARLINK-3139,1 49425U 21104T   23331.97215714  .00001055  00000-0  84390-4 0  9999,2 49425  53.2171   7.3457 0001471  94.9558 265.1602 15.08827842114007,6917.918,95.438,540.8,538.765,0.0
49425.0,STARLINK-3139,PAYLOAD,2023-11-28 12:02:59,15.0887001,0.0001603,53.2165,4.9656,101.9124,258.2048,0.0020276,0.00032155,0.0,0 STARLINK-3139,1 49425U 21104T   23332.50207756  .00032155  00000-0  20276-2 0  9992,2 49425  53.2165   4.9656 0001603 101.9124 258.2048 15.08870010114089,6917.789,95.436,540.763,538.545,0.0
49425.0,STARLINK-3139,PAYLOAD,2023-11-29 11:53:45,15.08859216,0.0002036,53.2184,0.4974,112.4391,247.6817,0.00047284,7.249e-05,0.0,0 STARLINK-3139,1 49425U 21104T   23333.49566961  .00007249  00000-0  47284-3 0  9992,2 49425  53.2184   0.4974 0002036 112.4391 247.6817 15.08859216114236,6917.822,95.436,541.095,538.278,0.0
49425.0,STARLINK-3139,PAYLOAD,2023-11-30 11:44:32,15.08850318,0.0001848,53.2182,356.041,103.712,256.4078,0.00034635,5.23e-05,0.0,0 STARLINK-3139,1 49425U 21104T   23334.48926747  .00005230  00000-0  34635-3 0  9998,2 49425  53.2182 356.0410 0001848 103.7120 256.4078 15.08850318114389,6917.849,95.437,540.992,538.435,0.0
49425.0,STARLINK-3139,PAYLOAD,2023-12-01 05:13:47,15.08841688,0.0001907,53.2185,352.7668,110.0668,250.053,9.6107e-05,1.242e-05,0.0,0 STARLINK-3139,1 49425U 21104T   23335.21791018  .00001242  00000-0  96107-4 0  9993,2 49425  53.2185 352.7668 0001907 110.0668 250.0530 15.08841688114499,6917.875,95.437,541.059,538.421,0.0
49425.0,STARLINK-3139,PAYLOAD,2023-12-01 08:24:33,15.08862491,0.0002104,53.2182,352.1748,57.9391,302.1805,0.00071282,0.00011082,0.0,0 STARLINK-3139,1 49425U 21104T   23335.35038636  .00011082  00000-0  71282-3 0  9997,2 49425  53.2182 352.1748 0002104  57.9391 302.1805 15.08862491114513,6917.812,95.436,541.132,538.221,0.0
49425.0,STARLINK-3139,PAYLOAD,2023-12-02 00:18:24,15.08853292,0.0001647,53.2183,349.2053,122.0927,238.0226,0.00041848,6.381e-05,0.0,0 STARLINK-3139,1 49425U 21104T   23336.01278677  .00006381  00000-0  41848-3 0  9993,2 49425  53.2183 349.2053 0001647 122.0927 238.0226 15.08853292114614,6917.84,95.437,540.844,538.565,0.0
49425.0,STARLINK-3139,PAYLOAD,2023-12-02 06:39:56,15.08883507,0.0001812,53.2186,348.0157,106.6165,253.5026,0.0013142,0.00020714,0.0,0 STARLINK-3139,1 49425U 21104T   23336.27774054  .00020714  00000-0  13142-2 0  9992,2 49425  53.2186 348.0157 0001812 106.6165 253.5026 15.08883507114651,6917.747,95.435,540.866,538.359,0.0
49425.0,STARLINK-3139,PAYLOAD,2023-12-03 09:41:32,15.08805629,0.0001883,53.2173,342.9589,126.3356,233.781,-0.00064955,-0.00010601,0.0,0 STARLINK-3139,1 49425U 21104T   23337.40384288 -.00010601  00000-0 -64955-3 0  9999,2 49425  53.2173 342.9589 0001883 126.3356 233.7810 15.08805629114827,6917.985,95.44,541.153,538.548,0.0
49425.0,STARLINK-3139,PAYLOAD,2023-12-03 12:52:18,15.08804682,0.0001639,53.2171,342.3643,118.1437,241.9721,-0.00043714,-7.232e-05,0.0,0 STARLINK-3139,1 49425U 21104T   23337.53632659 -.00007232  00000-0 -43714-3 0  9997,2 49425  53.2171 342.3643 0001639 118.1437 241.9721 15.08804682113760,6917.988,95.44,540.987,538.719,0.0
49425.0,STARLINK-3139,PAYLOAD,2023-12-04 00:00:00,15.08814902,0.0001632,53.2169,340.2836,103.0,257.1175,0.00035362,5.341e-05,0.0,0 STARLINK-3139,1 49425U 21104T   23338.00000850  .00005341  00000-0  35362-3 0  9999,2 49425  53.2169 340.2836 0001632 103.0000 257.1175 15.08814902114916,6917.957,95.439,540.951,538.693,0.0
49425.0,STARLINK-3139,PAYLOAD,2023-12-04 07:56:56,15.08836067,0.0001805,53.2159,338.7984,109.9529,250.1658,0.00050808,7.806e-05,0.0,0 STARLINK-3139,1 49425U 21104T   23338.33121179  .00007806  00000-0  50808-3 0  9993,2 49425  53.2159 338.7984 0001805 109.9529 250.1658 15.08836067114964,6917.892,95.438,541.006,538.509,0.0
49425.0,STARLINK-3139,PAYLOAD,2023-12-05 06:12:19,15.0887132,0.0001784,53.2165,334.6334,112.9933,247.1247,0.00088056,0.00013766,0.0,0 STARLINK-3139,1 49425U 21104T   23339.25856038  .00013766  00000-0  88056-3 0  9992,2 49425  53.2165 334.6334 0001784 112.9933 247.1247 15.08871320115102,6917.785,95.436,540.884,538.416,0.0
49425.0,STARLINK-3139,PAYLOAD,2023-12-06 04:27:43,15.08853128,0.0001881,53.2167,330.4692,112.8385,247.2806,9.597e-05,1.24e-05,0.0,0 STARLINK-3139,1 49425U 21104T   23340.18591589  .00001240  00000-0  95970-4 0  9991,2 49425  53.2167 330.4692 0001881 112.8385 247.2806 15.08853128115246,6917.84,95.437,541.007,538.404,0.0
49425.0,STARLINK-3139,PAYLOAD,2023-12-06 06:03:06,15.08853714,0.0001788,53.2173,330.1717,113.3617,246.7563,0.00010076,1.316e-05,0.0,0 STARLINK-3139,1 49425U 21104T   23340.25215544  .00001316  00000-0  10076-3 0  9990,2 49425  53.2173 330.1717 0001788 113.3617 246.7563 15.08853714114174,6917.838,95.437,540.94,538.467,0.0
49425.0,STARLINK-3139,PAYLOAD,2023-12-07 04:18:30,15.08843701,0.0002049,53.2182,326.0104,117.0498,243.0703,-0.00015992,-2.833e-05,0.0,0 STARLINK-3139,1 49425U 21104T   23341.17951830 -.00002833  00000-0 -15992-3 0  9996,2 49425  53.2182 326.0104 0002049 117.0498 243.0703 15.08843701115393,6917.869,95.437,541.152,538.317,0.0
49425.0,STARLINK-3139,PAYLOAD,2023-12-07 09:04:40,15.08840629,0.0001989,53.2182,325.1165,112.9835,247.1367,-1.4103e-07,-2.9e-06,0.0,0 STARLINK-3139,1 49425U 21104T   23341.37824143 -.00000290  00000-0 -14103-6 0  9995,2 49425  53.2182 325.1165 0001989 112.9835 247.1367 15.08840629114342,6917.878,95.438,541.119,538.368,0.0
49425.0,STARLINK-3139,PAYLOAD,2023-12-08 08:55:27,15.08839828,0.0001746,53.2179,320.6567,106.251,253.8674,5.9121e-05,6.53e-06,0.0,0 STARLINK-3139,1 49425U 21104T   23342.37184062  .00000653  00000-0  59121-4 0  9993,2 49425  53.2179 320.6567 0001746 106.2510 253.8674 15.08839828115571,6917.881,95.438,540.954,538.538,0.0
49425.0,STARLINK-3139,PAYLOAD,2023-12-09 04:00:04,15.08839707,0.0001634,53.2182,317.0879,99.1431,260.9746,9.6531e-05,1.249e-05,0.0,0 STARLINK-3139,1 49425U 21104T   23343.16672128  .00001249  00000-0  96531-4 0  9994,2 49425  53.2182 317.0879 0001634  99.1431 260.9746 15.08839707114618,6917.881,95.438,540.877,538.616,0.0
49425.0,STARLINK-3139,PAYLOAD,2023-12-09 21:29:19,15.08836523,0.0001677,53.2184,313.8175,98.9764,261.1418,6.0647e-05,6.77e-06,0.0,0 STARLINK-3139,1 49425U 21104T   23343.89536526  .00000677  00000-0  60647-4 0  9998,2 49425  53.2184 313.8175 0001677  98.9764 261.1418 15.08836523114720,6917.891,95.438,540.916,538.596,0.0
49425.0,STARLINK-3139,PAYLOAD,2023-12-10 07:01:38,15.08840373,0.0001585,53.2181,312.034,91.2708,268.8466,3.8569e-05,3.26e-06,0.0,0 STARLINK-3139,1 49425U 21104T   23344.29280449  .00000326  00000-0  38569-4 0  9992,2 49425  53.2181 312.0340 0001585  91.2708 268.8466 15.08840373114785,6917.879,95.438,540.841,538.648,0.0
